{"type":"FeatureCollection","features":[{"type":"Feature","geometry":{"type":"Polygon","coordinates":[[[77.55445,13.0958],[77.5502,13.09332],[77.54603,13.09582],[77.54611,13.10081],[77.55036,13.10329],[77.55045,13.10827],[77.5547,13.11076],[77.55887,13.10825],[77.55879,13.10327],[77.55453,13.10079],[77.55445,13.0958]]]},"properties":{"id":"shivaram-karanth-layout-east","role":"area"}},{"type":"Feature","geometry":{"type":"Polygon","coordinates":[[[77.73739,12.94551],[77.74156,12.943],[77.74148,12.93801],[77.73722,12.93553],[77.73304,12.93804],[77.72878,12.93557],[77.7246,12.93808],[77.72469,12.94307],[77.72895,12.94555],[77.73313,12.94304],[77.73739,12.94551]]]},"properties":{"id":"panathur","role":"area"}},{"type":"Feature","geometry":{"type":"Polygon","coordinates":[[[77.77602,12.9828],[77.77611,12.9878],[77.77193,12.99031],[77.76766,12.98783],[77.76758,12.98284],[77.77175,12.98032],[77.77602,12.9828]]]},"properties":{"id":"channasandra","role":"area"}},{"type":"Feature","geometry":{"type":"Polygon","coordinates":[[[77.83236,13.06498],[77.83245,13.06997],[77.82827,13.07248],[77.824,13.07],[77.82391,13.06501],[77.82809,13.0625],[77.83236,13.06498]]]},"properties":{"id":"kolathuru","role":"area"}},{"type":"Feature","geometry":{"type":"Polygon","coordinates":[[[77.51209,13.08095],[77.51217,13.08593],[77.508,13.08844],[77.50375,13.08595],[77.49958,13.08846],[77.49967,13.09344],[77.50392,13.09592],[77.504,13.10091],[77.50825,13.10339],[77.50833,13.10837],[77.51259,13.11086],[77.51675,13.10836],[77.52101,13.11084],[77.52518,13.10834],[77.52943,13.11082],[77.5336,13.10832],[77.53352,13.10333],[77.52926,13.10085],[77.52509,13.10335],[77.52084,13.10087],[77.52076,13.09588],[77.52493,13.09338],[77.52485,13.0884],[77.52059,13.08591],[77.52051,13.08093],[77.51626,13.07845],[77.51209,13.08095]]]},"properties":{"id":"shivaram-karanth-layout","role":"area"}},{"type":"Feature","geometry":{"type":"Polygon","coordinates":[[[77.69393,12.87082],[77.69401,12.87581],[77.68984,12.87832],[77.68558,12.87585],[77.6855,12.87085],[77.68967,12.86834],[77.69393,12.87082]]]},"properties":{"id":"gattahalli","role":"area"}},{"type":"Feature","geometry":{"type":"Polygon","coordinates":[[[77.7627,12.94541],[77.75844,12.94293],[77.75427,12.94544],[77.75,12.94297],[77.74583,12.94548],[77.74591,12.95047],[77.74174,12.95299],[77.74182,12.95798],[77.74609,12.96046],[77.75026,12.95794],[77.75018,12.95295],[77.75435,12.95044],[77.75861,12.95292],[77.7587,12.95791],[77.76297,12.96039],[77.76714,12.95787],[77.76706,12.95288],[77.76279,12.9504],[77.7627,12.94541]]]},"properties":{"id":"varthur","role":"area"}},{"type":"Feature","geometry":{"type":"Polygon","coordinates":[[[77.73842,13.00542],[77.73851,13.01041],[77.73433,13.01292],[77.73442,13.01791],[77.73868,13.02039],[77.74286,13.01788],[77.74712,13.02036],[77.7513,13.01785],[77.75556,13.02033],[77.75974,13.01782],[77.75966,13.01282],[77.75539,13.01034],[77.75121,13.01286],[77.74695,13.01038],[77.74686,13.00538],[77.7426,13.0029],[77.73842,13.00542]]]},"properties":{"id":"k-dommasandra","role":"area"}},{"type":"Feature","geometry":{"type":"Polygon","coordinates":[[[77.80056,12.93776],[77.80065,12.94275],[77.79647,12.94527],[77.79221,12.94279],[77.79212,12.93779],[77.7963,12.93528],[77.80056,12.93776]]]},"properties":{"id":"mutsandra","role":"area"}},{"type":"Feature","geometry":{"type":"Polygon","coordinates":[[[77.68857,13.05051],[77.68866,13.0555],[77.68448,13.05801],[77.68022,13.05553],[77.68014,13.05054],[77.68431,13.04803],[77.68857,13.05051]]]},"properties":{"id":"ramapura","role":"area"}},{"type":"Feature","geometry":{"type":"Polygon","coordinates":[[[77.44951,12.85681],[77.44959,12.8618],[77.44542,12.86431],[77.44118,12.86183],[77.4411,12.85684],[77.44526,12.85434],[77.44951,12.85681]]]},"properties":{"id":"tagachaguppe","role":"area"}},{"type":"Feature","geometry":{"type":"Polygon","coordinates":[[[77.71797,13.04293],[77.71806,13.04792],[77.71388,13.05043],[77.70962,13.04795],[77.70954,13.04296],[77.71371,13.04045],[77.71797,13.04293]]]},"properties":{"id":"hirandahalli","role":"area"}},{"type":"Feature","geometry":{"type":"Polygon","coordinates":[[[77.47065,12.86422],[77.47073,12.8692],[77.46657,12.87171],[77.46232,12.86923],[77.46224,12.86425],[77.4664,12.86174],[77.47065,12.86422]]]},"properties":{"id":"gudimavu","role":"area"}},{"type":"Feature","geometry":{"type":"Polygon","coordinates":[[[77.78934,13.0202],[77.78942,13.02519],[77.78525,13.0277],[77.78098,13.02522],[77.78089,13.02023],[77.78507,13.01772],[77.78934,13.0202]]]},"properties":{"id":"bhaktarahalli","role":"area"}},{"type":"Feature","geometry":{"type":"Polygon","coordinates":[[[77.51984,13.10394],[77.51995,13.104],[77.52006,13.10402],[77.52074,13.10384],[77.52082,13.10414],[77.52086,13.10421],[77.52093,13.10428],[77.52106,13.10433],[77.52114,13.10433],[77.52186,13.10419],[77.52194,13.10417],[77.52201,13.10413],[77.52207,13.10407],[77.52211,13.10397],[77.52215,13.10345],[77.52248,13.10324],[77.52256,13.10316],[77.5226,13.10304],[77.52258,13.10281],[77.52294,13.10269],[77.52302,13.10262],[77.52307,13.10253],[77.52308,13.10245],[77.52306,13.10237],[77.52286,13.10175],[77.52281,13.10165],[77.52269,13.10157],[77.52256,13.10156],[77.52161,13.10178],[77.52134,13.1018],[77.52093,13.10176],[77.52083,13.1018],[77.52074,13.10187],[77.52051,13.10189],[77.52028,13.10195],[77.5202,13.10199],[77.51987,13.10227],[77.51963,13.10243],[77.51933,13.10244],[77.51904,13.10249],[77.51887,13.10254],[77.51867,13.10264],[77.51848,13.10276],[77.51833,13.1029],[77.51819,13.10309],[77.51813,13.10321],[77.51811,13.10334],[77.51814,13.10344],[77.51823,13.10354],[77.51835,13.10359],[77.51844,13.10358],[77.51874,13.10352],[77.5193,13.10335],[77.51942,13.10352],[77.51984,13.10394]],[[77.51981,13.10253],[77.52031,13.10213],[77.52054,13.10207],[77.52082,13.10205],[77.52095,13.10194],[77.52134,13.10198],[77.52164,13.10196],[77.5226,13.10174],[77.52265,13.10175],[77.52268,13.10179],[77.52289,13.10245],[77.52288,13.1025],[77.52284,13.10254],[77.52239,13.10269],[77.52242,13.10301],[77.52241,13.10305],[77.52238,13.10308],[77.52198,13.10335],[77.52193,13.10393],[77.5219,13.10399],[77.52183,13.10401],[77.52111,13.10415],[77.52105,13.10414],[77.521,13.10409],[77.52086,13.10362],[77.52006,13.10383],[77.52001,13.10383],[77.51955,13.10339],[77.51938,13.10314],[77.5187,13.10335],[77.51839,13.10341],[77.51834,13.1034],[77.5183,13.10336],[77.51829,13.10329],[77.5184,13.10311],[77.51854,13.10296],[77.51877,13.10279],[77.51895,13.10271],[77.51921,13.10264],[77.51948,13.10261],[77.51968,13.10261],[77.51981,13.10253]]]},"properties":{"id":"medi-agrahara-lake","role":"ring"}},{"type":"Feature","geometry":{"type":"Polygon","coordinates":[[[77.5197,13.1027],[77.51949,13.1027],[77.51923,13.10273],[77.51898,13.10279],[77.51889,13.10283],[77.51874,13.10291],[77.5186,13.10302],[77.51848,13.10316],[77.51838,13.10332],[77.51868,13.10326],[77.51942,13.10304],[77.51962,13.10333],[77.52004,13.10374],[77.52092,13.10351],[77.52109,13.10406],[77.52184,13.10392],[77.52189,13.1033],[77.52233,13.10301],[77.52229,13.10263],[77.5228,13.10246],[77.5226,13.10183],[77.52165,13.10205],[77.52134,13.10207],[77.52097,13.10203],[77.52085,13.10214],[77.52055,13.10216],[77.52036,13.10221],[77.52004,13.10248],[77.51986,13.10261],[77.5197,13.1027]]]},"properties":{"id":"medi-agrahara-lake","role":"water"}},{"type":"Feature","geometry":{"type":"Polygon","coordinates":[[[77.61261,12.83161],[77.61222,12.8318],[77.612,12.83185],[77.61186,12.83182],[77.61172,12.83168],[77.61159,12.83164],[77.61151,12.83165],[77.61139,12.83169],[77.61129,12.83177],[77.61123,12.83189],[77.61122,12.8321],[77.6114,12.83289],[77.61143,12.83296],[77.61149,12.83302],[77.61159,12.83306],[77.61192,12.83315],[77.61219,12.83315],[77.61227,12.83314],[77.61243,12.83305],[77.61288,12.83258],[77.613,12.83238],[77.61331,12.83201],[77.61335,12.83191],[77.61333,12.8318],[77.6133,12.83172],[77.61324,12.83166],[77.61304,12.83155],[77.61294,12.83154],[77.61261,12.83161]],[[77.61296,12.83172],[77.61301,12.83173],[77.61314,12.83181],[77.61316,12.83187],[77.61315,12.83192],[77.61285,12.83227],[77.61273,12.83247],[77.61231,12.83291],[77.6122,12.83297],[77.61196,12.83298],[77.61163,12.83289],[77.61159,12.83286],[77.61157,12.83282],[77.6114,12.83208],[77.61141,12.83192],[77.61144,12.83187],[77.61154,12.83183],[77.6116,12.83183],[77.61177,12.83198],[77.612,12.83204],[77.61229,12.83197],[77.61268,12.83178],[77.61296,12.83172]]]},"properties":{"id":"chittekarepalya-lake","role":"ring"}},{"type":"Feature","geometry":{"type":"Polygon","coordinates":[[[77.61297,12.83181],[77.61307,12.83188],[77.61277,12.83222],[77.61266,12.83242],[77.61225,12.83284],[77.61218,12.83288],[77.61197,12.83289],[77.61166,12.8328],[77.61149,12.83207],[77.6115,12.83193],[77.61157,12.83191],[77.61172,12.83206],[77.612,12.83213],[77.61232,12.83205],[77.61271,12.83187],[77.61297,12.83181]]]},"properties":{"id":"chittekarepalya-lake","role":"water"}},{"type":"Feature","geometry":{"type":"MultiPolygon","coordinates":[[[[77.72473,12.95847],[77.72484,12.95847],[77.72491,12.95845],[77.72498,12.9583],[77.72475,12.95824],[77.72471,12.95825],[77.72467,12.95831],[77.72473,12.95847]]],[[[77.72361,12.9572],[77.72366,12.9574],[77.72373,12.95751],[77.72379,12.95756],[77.72387,12.95759],[77.724,12.95761],[77.72413,12.95761],[77.72422,12.95783],[77.72423,12.95793],[77.7241,12.95876],[77.72395,12.95938],[77.72399,12.95976],[77.72403,12.95987],[77.72412,12.96001],[77.72424,12.96007],[77.72454,12.9601],[77.72496,12.96011],[77.72522,12.96013],[77.72549,12.96014],[77.72578,12.96007],[77.72654,12.95962],[77.7266,12.95957],[77.72671,12.9594],[77.72706,12.95844],[77.72744,12.95787],[77.72759,12.95756],[77.72763,12.9574],[77.72762,12.9573],[77.72757,12.9572],[77.72748,12.9571],[77.72737,12.95706],[77.72694,12.957],[77.72668,12.95705],[77.72649,12.95712],[77.72628,12.95715],[77.7258,12.95716],[77.72545,12.95714],[77.72513,12.95717],[77.725,12.95711],[77.72469,12.9569],[77.72447,12.95672],[77.72429,12.95665],[77.72415,12.95665],[77.72409,12.9566],[77.72411,12.95613],[77.7241,12.95589],[77.72405,12.9558],[77.72399,12.95575],[77.72389,12.95571],[77.72379,12.95569],[77.72368,12.95571],[77.72359,12.95577],[77.72352,12.95586],[77.72349,12.95596],[77.7235,12.95633],[77.72347,12.95656],[77.72352,12.95686],[77.7236,12.95703],[77.72361,12.9572]],[[77.72408,12.95684],[77.72425,12.95683],[77.72437,12.95688],[77.72458,12.95705],[77.72491,12.95726],[77.7251,12.95735],[77.72543,12.95733],[77.72579,12.95734],[77.7263,12.95733],[77.72654,12.9573],[77.72673,12.95722],[77.72692,12.95718],[77.72735,12.95724],[77.7274,12.95727],[77.72745,12.95737],[77.72742,12.95749],[77.72727,12.95779],[77.72689,12.95836],[77.72653,12.95933],[77.72646,12.95945],[77.72571,12.9599],[77.72547,12.95996],[77.7243,12.9599],[77.72424,12.95987],[77.72417,12.95976],[77.72413,12.9594],[77.72428,12.95879],[77.72441,12.95793],[77.7244,12.95779],[77.72426,12.95746],[77.72417,12.95743],[77.72401,12.95743],[77.72391,12.95741],[77.72387,12.95739],[77.72382,12.95732],[77.72379,12.95717],[77.72378,12.957],[77.72376,12.95691],[77.7237,12.95682],[77.72367,12.95669],[77.72365,12.95654],[77.72368,12.95634],[77.72368,12.95597],[77.72371,12.95591],[77.72375,12.95588],[77.72387,12.95589],[77.72392,12.95594],[77.72393,12.95614],[77.72391,12.95665],[77.72394,12.95671],[77.72408,12.95684]]]]},"properties":{"id":"thubarahalli-lake","role":"ring"}},{"type":"Feature","geometry":{"type":"Polygon","coordinates":[[[77.72384,12.95673],[77.72381,12.9566],[77.72383,12.95597],[77.72378,12.95597],[77.72377,12.95598],[77.72377,12.95634],[77.72375,12.95654],[77.72376,12.95668],[77.72379,12.9568],[77.72384,12.95687],[77.72387,12.95699],[77.72388,12.95716],[77.72391,12.95729],[77.72394,12.95732],[77.72401,12.95734],[77.72418,12.95734],[77.72429,12.95736],[77.72434,12.9574],[77.72449,12.95777],[77.7245,12.95794],[77.72437,12.95881],[77.72422,12.95941],[77.72426,12.95974],[77.72431,12.95981],[77.72498,12.95984],[77.72545,12.95987],[77.72566,12.95982],[77.72639,12.95939],[77.72645,12.9593],[77.72681,12.95831],[77.72719,12.95774],[77.72734,12.95745],[77.72736,12.95738],[77.72733,12.95733],[77.72692,12.95727],[77.72676,12.95731],[77.72656,12.95738],[77.7263,12.95742],[77.72579,12.95743],[77.72543,12.95742],[77.72508,12.95745],[77.72487,12.95734],[77.72452,12.95712],[77.72433,12.95696],[77.72423,12.95692],[77.72405,12.95693],[77.72384,12.95673]],[[77.72466,12.95816],[77.72475,12.95815],[77.72508,12.95823],[77.72509,12.95827],[77.72498,12.95852],[77.72485,12.95855],[77.72475,12.95856],[77.72466,12.95854],[77.72457,12.9583],[77.72466,12.95816]],[[77.72607,12.95872],[77.7261,12.95867],[77.72617,12.95866],[77.72619,12.95868],[77.7262,12.95871],[77.72618,12.95877],[77.72609,12.95877],[77.72607,12.95872]]]},"properties":{"id":"thubarahalli-lake","role":"water"}},{"type":"Feature","geometry":{"type":"Polygon","coordinates":[[[77.52704,13.10046],[77.52711,13.10055],[77.52731,13.10067],[77.52742,13.1007],[77.52753,13.10069],[77.5277,13.10058],[77.52777,13.1005],[77.52787,13.10019],[77.52788,13.10008],[77.52781,13.09979],[77.52775,13.09947],[77.52801,13.09922],[77.52805,13.09914],[77.52806,13.09903],[77.52799,13.09868],[77.52795,13.09859],[77.52769,13.09837],[77.5276,13.09831],[77.52749,13.0983],[77.52716,13.09837],[77.52639,13.09862],[77.52628,13.0987],[77.52621,13.09882],[77.5262,13.0991],[77.52623,13.0992],[77.52631,13.0993],[77.52655,13.09941],[77.52673,13.09958],[77.52685,13.09982],[77.52696,13.10011],[77.52701,13.10038],[77.52704,13.10046]],[[77.52702,13.09976],[77.52688,13.09947],[77.52665,13.09926],[77.52643,13.09916],[77.5264,13.09913],[77.52638,13.09908],[77.5264,13.09885],[77.52645,13.0988],[77.52719,13.09855],[77.5275,13.09848],[77.52755,13.09849],[77.5278,13.09869],[77.52788,13.09906],[77.52785,13.09912],[77.52756,13.0994],[77.52763,13.09983],[77.5277,13.10012],[77.52763,13.10039],[77.5276,13.10043],[77.52748,13.10051],[77.52743,13.10052],[77.52739,13.10051],[77.52721,13.10039],[77.52719,13.10035],[77.52714,13.10006],[77.52702,13.09976]]]},"properties":{"id":"guni-agrahara-lake","role":"ring"}},{"type":"Feature","geometry":{"type":"Polygon","coordinates":[[[77.52728,13.10033],[77.52744,13.10043],[77.52754,13.10036],[77.52761,13.10012],[77.52754,13.09985],[77.52746,13.09937],[77.52779,13.09906],[77.52772,13.09874],[77.52752,13.09857],[77.52722,13.09864],[77.52648,13.09888],[77.52648,13.09908],[77.5267,13.09919],[77.52696,13.09941],[77.52711,13.09972],[77.52723,13.10004],[77.52728,13.10033]]]},"properties":{"id":"guni-agrahara-lake","role":"water"}},{"type":"Feature","geometry":{"type":"Polygon","coordinates":[[[77.52655,13.10515],[77.52664,13.10515],[77.52672,13.10512],[77.52761,13.10448],[77.52769,13.10438],[77.5277,13.10425],[77.52767,13.10415],[77.52724,13.10341],[77.52658,13.10252],[77.52636,13.10196],[77.5263,13.1019],[77.52621,13.10184],[77.52613,13.10183],[77.52598,13.10183],[77.52586,13.10188],[77.52531,13.1023],[77.5248,13.10296],[77.52426,13.10334],[77.52406,13.10346],[77.52398,13.10358],[77.52392,13.10377],[77.52392,13.10388],[77.52404,13.10419],[77.52409,13.10426],[77.52417,13.10432],[77.52431,13.10434],[77.52446,13.10429],[77.525,13.10432],[77.52599,13.10494],[77.52647,13.10513],[77.52655,13.10515]],[[77.52607,13.10478],[77.52506,13.10415],[77.52442,13.10411],[77.52431,13.10416],[77.52425,13.10415],[77.52421,13.10411],[77.5241,13.10383],[77.52416,13.10363],[77.52418,13.10359],[77.52436,13.10349],[77.52492,13.10309],[77.52544,13.10243],[77.52597,13.10203],[77.52603,13.10201],[77.52615,13.10201],[77.5262,13.10205],[77.52642,13.1026],[77.52708,13.10349],[77.52751,13.10424],[77.52752,13.10428],[77.52751,13.10432],[77.52749,13.10435],[77.52661,13.10497],[77.52655,13.10497],[77.52607,13.10478]]]},"properties":{"id":"bylakere-lake","role":"ring"}},{"type":"Feature","geometry":{"type":"Polygon","coordinates":[[[77.52658,13.10488],[77.52743,13.10428],[77.527,13.10354],[77.52633,13.10265],[77.52612,13.1021],[77.52603,13.1021],[77.5255,13.1025],[77.52499,13.10316],[77.52441,13.10357],[77.52424,13.10366],[77.52419,13.10383],[77.52429,13.10407],[77.5244,13.10402],[77.52509,13.10406],[77.52611,13.1047],[77.52658,13.10488]]]},"properties":{"id":"bylakere-lake","role":"water"}},{"type":"Feature","geometry":{"type":"Polygon","coordinates":[[[77.66677,12.8067],[77.66682,12.80679],[77.66694,12.8069],[77.667,12.80714],[77.66704,12.80721],[77.6671,12.80726],[77.66718,12.80729],[77.66738,12.80734],[77.66784,12.80735],[77.66796,12.8073],[77.66864,12.80681],[77.6692,12.80652],[77.66935,12.80643],[77.66943,12.80632],[77.66945,12.80624],[77.66945,12.80616],[77.66939,12.80604],[77.66919,12.80585],[77.66874,12.80558],[77.66763,12.80484],[77.66744,12.80475],[77.66722,12.80474],[77.66704,12.80483],[77.66699,12.80489],[77.66695,12.80496],[77.66694,12.80509],[77.66703,12.80533],[77.66688,12.80536],[77.66673,12.80536],[77.66663,12.80539],[77.66626,12.80562],[77.6662,12.80568],[77.66616,12.80577],[77.66615,12.80585],[77.66617,12.80593],[77.66622,12.806],[77.66627,12.80606],[77.66638,12.8061],[77.66665,12.80613],[77.66668,12.80618],[77.66677,12.8067]],[[77.66642,12.80592],[77.66638,12.8059],[77.66635,12.80587],[77.66634,12.80582],[77.66636,12.80578],[77.66671,12.80555],[77.66675,12.80554],[77.6669,12.80554],[77.66717,12.8055],[77.66723,12.80544],[77.66721,12.80529],[77.66712,12.80507],[77.66712,12.80502],[77.66715,12.80497],[77.66724,12.80493],[77.66738,12.80492],[77.66753,12.80498],[77.66864,12.80573],[77.66907,12.80599],[77.66925,12.80616],[77.66927,12.80623],[77.66924,12.80628],[77.66912,12.80636],[77.66854,12.80665],[77.66784,12.80716],[77.6678,12.80717],[77.6674,12.80716],[77.66722,12.80711],[77.66717,12.80707],[77.6671,12.80681],[77.66695,12.80665],[77.66686,12.80612],[77.66677,12.80598],[77.66672,12.80595],[77.66642,12.80592]]]},"properties":{"id":"yarandahalli-kere","role":"ring"}},{"type":"Feature","geometry":{"type":"Polygon","coordinates":[[[77.66684,12.80591],[77.66695,12.80609],[77.66704,12.80663],[77.66719,12.80676],[77.66725,12.80703],[77.66741,12.80707],[77.6678,12.80708],[77.66849,12.80658],[77.66907,12.80628],[77.66918,12.80622],[77.66902,12.80607],[77.66859,12.8058],[77.66748,12.80506],[77.66737,12.80501],[77.66728,12.80501],[77.66721,12.80504],[77.6673,12.80526],[77.66733,12.80548],[77.6672,12.80558],[77.66691,12.80563],[77.66676,12.80563],[77.66643,12.80583],[77.66675,12.80586],[77.66684,12.80591]]]},"properties":{"id":"yarandahalli-kere","role":"water"}},{"type":"Feature","geometry":{"type":"Polygon","coordinates":[[[77.66683,12.99934],[77.6669,12.99931],[77.66697,12.99927],[77.66701,12.9992],[77.66704,12.99912],[77.66704,12.99902],[77.66701,12.99894],[77.66695,12.99888],[77.66689,12.99883],[77.66583,12.99844],[77.66522,12.99813],[77.6642,12.99754],[77.66407,12.99753],[77.66397,12.99757],[77.66389,12.99763],[77.66374,12.99782],[77.66372,12.9979],[77.66372,12.998],[77.66388,12.99841],[77.66395,12.9986],[77.66399,12.99885],[77.664,12.99906],[77.66388,13.00055],[77.6639,13.00063],[77.66393,13.0007],[77.66404,13.00079],[77.66418,13.00083],[77.66426,13.00084],[77.66434,13.00083],[77.66443,13.00077],[77.6645,13.00069],[77.66457,13.0005],[77.66466,13.00033],[77.66484,13.00009],[77.66499,12.99995],[77.66518,12.9998],[77.66552,12.99957],[77.66575,12.99947],[77.66593,12.99941],[77.66618,12.99936],[77.66683,12.99934]],[[77.66588,12.99924],[77.66569,12.9993],[77.66543,12.99941],[77.66507,12.99965],[77.66487,12.99982],[77.66471,12.99997],[77.6646,13.0001],[77.6645,13.00024],[77.66432,13.00063],[77.66424,13.00066],[77.66411,13.00062],[77.66408,13.00059],[77.66407,13.00054],[77.66418,12.99907],[77.66417,12.99884],[77.66413,12.99856],[77.66406,12.99834],[77.6639,12.99797],[77.66391,12.9979],[77.66405,12.99773],[77.6641,12.99771],[77.66414,12.99772],[77.66513,12.99829],[77.66576,12.9986],[77.6668,12.99899],[77.66684,12.99902],[77.66686,12.99906],[77.66684,12.99913],[77.66678,12.99917],[77.66616,12.99918],[77.66588,12.99924]]]},"properties":{"id":"dooravaninagar-lake","role":"ring"}},{"type":"Feature","geometry":{"type":"Polygon","coordinates":[[[77.66677,12.99908],[77.66615,12.99909],[77.66586,12.99915],[77.66565,12.99921],[77.66538,12.99933],[77.66501,12.99958],[77.66481,12.99975],[77.66464,12.99991],[77.66442,13.00019],[77.66432,13.00039],[77.66425,13.00057],[77.66416,13.00055],[77.66427,12.99907],[77.66426,12.99883],[77.66422,12.99854],[77.66414,12.99831],[77.66399,12.99795],[77.66411,12.9978],[77.66509,12.99837],[77.66572,12.99869],[77.66677,12.99908]]]},"properties":{"id":"dooravaninagar-lake","role":"water"}},{"type":"Feature","geometry":{"type":"Polygon","coordinates":[[[77.40163,13.08093],[77.40166,13.08086],[77.40167,13.08078],[77.40165,13.0807],[77.40161,13.08063],[77.40155,13.08057],[77.40106,13.08023],[77.40094,13.07999],[77.40089,13.07992],[77.40036,13.07937],[77.40025,13.07929],[77.40001,13.07922],[77.39993,13.07923],[77.39986,13.07925],[77.39977,13.07931],[77.39952,13.07965],[77.39891,13.07983],[77.3988,13.07991],[77.39875,13.08001],[77.39874,13.08011],[77.39893,13.08171],[77.39898,13.0818],[77.39921,13.08204],[77.39947,13.08255],[77.39953,13.0826],[77.39961,13.08264],[77.39975,13.08265],[77.39987,13.08259],[77.40063,13.08183],[77.40157,13.08099],[77.40163,13.08093]],[[77.39976,13.08244],[77.39969,13.08247],[77.39962,13.08244],[77.39937,13.08193],[77.39911,13.08166],[77.39892,13.08007],[77.39894,13.08003],[77.39898,13.08],[77.39964,13.0798],[77.39991,13.07943],[77.39994,13.07941],[77.39999,13.0794],[77.40023,13.07949],[77.40076,13.08005],[77.40091,13.08035],[77.40145,13.08072],[77.40147,13.08076],[77.40148,13.0808],[77.40145,13.08086],[77.40051,13.0817],[77.39976,13.08244]]]},"properties":{"id":"mallapura-lake","role":"ring"}},{"type":"Feature","geometry":{"type":"Polygon","coordinates":[[[77.40139,13.08079],[77.40084,13.08041],[77.40069,13.0801],[77.40016,13.07955],[77.39998,13.07949],[77.39969,13.07988],[77.39902,13.08008],[77.39919,13.08163],[77.39944,13.08188],[77.39969,13.08238],[77.40044,13.08163],[77.40139,13.08079]]]},"properties":{"id":"mallapura-lake","role":"water"}}]}