{"type":"FeatureCollection","features":[{"type":"Feature","geometry":{"type":"Point","coordinates":[77.55245,13.10204]},"properties":{"id":"shivaram-karanth-layout-east","kind":"ground","name":"Shivaram Karanth Layout, east block","text":"A second block of the same layout. Fields gave way to a road grid in 2024.","fact":null,"front":"north-west","hexes":2}},{"type":"Feature","geometry":{"type":"Point","coordinates":[77.77184,12.98532]},"properties":{"id":"channasandra","kind":"ground","name":"Channasandra","text":"A green block scraped between 2023 and 2026.","fact":null,"front":"east","hexes":1}},{"type":"Feature","geometry":{"type":"Point","coordinates":[77.78516,13.02271]},"properties":{"id":"bhaktarahalli","kind":"ground","name":"Bhaktarahalli","text":"Fields turned into sheds and buildings from 2022.","fact":null,"front":"east","hexes":1}},{"type":"Feature","geometry":{"type":"Point","coordinates":[77.6844,13.05302]},"properties":{"id":"ramapura","kind":"ground","name":"Ramapura","text":"Buildings spreading across farmland year after year.","fact":null,"front":"east","hexes":1}},{"type":"Feature","geometry":{"type":"Point","coordinates":[77.75437,12.95169]},"properties":{"id":"varthur","kind":"ground","name":"Varthur","text":"Land beside Varthur Lake and the green valley west of its wetland cleared for building from 2023.","fact":null,"front":"east","hexes":4}},{"type":"Feature","geometry":{"type":"Point","coordinates":[77.73308,12.94054]},"properties":{"id":"panathur","kind":"ground","name":"Panathur and the Varthur shore","text":"Green plots inside the village and along the lake shore built over, year after year since 2020.","fact":null,"front":"east","hexes":2}},{"type":"Feature","geometry":{"type":"Point","coordinates":[77.46649,12.86672]},"properties":{"id":"gudimavu","kind":"ground","name":"Gudimavu","text":"Plantation rows and fields cleared at the centre by 2026.","fact":null,"front":"elsewhere","hexes":1}},{"type":"Feature","geometry":{"type":"Point","coordinates":[77.51563,13.09673]},"properties":{"id":"shivaram-karanth-layout","kind":"ground","name":"Shivaram Karanth Layout","text":"Farmland and scrub scraped for a new layout's road grid in 2024 and 2025.","fact":"The biggest single place on the map: 9 of the 30 confirmed losses, side by side.","front":"north-west","hexes":9}},{"type":"Feature","geometry":{"type":"Point","coordinates":[77.82818,13.06749]},"properties":{"id":"kolathuru","kind":"ground","name":"Kolathuru","text":"Farmland cut by the new ring highway in 2022, then a large warehouse in 2024.","fact":null,"front":"east","hexes":1}},{"type":"Feature","geometry":{"type":"Point","coordinates":[77.68975,12.87333]},"properties":{"id":"gattahalli","kind":"ground","name":"Gattahalli","text":"Fields south of Gattahalli Lake built on between 2024 and 2026.","fact":null,"front":"elsewhere","hexes":1}},{"type":"Feature","geometry":{"type":"Point","coordinates":[77.74595,13.0135]},"properties":{"id":"k-dommasandra","kind":"ground","name":"K Dommasandra and Kumbena Agrahara","text":"Fields and a green wetland valley scraped and built on from 2023.","fact":null,"front":"east","hexes":4}},{"type":"Feature","geometry":{"type":"Point","coordinates":[77.79638,12.94027]},"properties":{"id":"mutsandra","kind":"ground","name":"Mutsandra","text":"Farmland turned into a construction site from 2022.","fact":null,"front":"east","hexes":1}},{"type":"Feature","geometry":{"type":"Point","coordinates":[77.44534,12.85932]},"properties":{"id":"tagachaguppe","kind":"ground","name":"Tagachaguppe","text":"The northern half built as a layout from 2021.","fact":null,"front":"elsewhere","hexes":1}},{"type":"Feature","geometry":{"type":"Point","coordinates":[77.7138,13.04544]},"properties":{"id":"hirandahalli","kind":"ground","name":"Hirandahalli","text":"Fields and wetland edges cleared in 2025 and 2026.","fact":null,"front":"east","hexes":1}},{"type":"Feature","geometry":{"type":"Point","coordinates":[77.52048,13.10298]},"properties":{"id":"medi-agrahara-lake","kind":"lake","name":"Medi Agrahara Lake","text":"A layout's road grid built right up to the shore in 2024.","fact":null,"front":"north-west","hexes":0}},{"type":"Feature","geometry":{"type":"Point","coordinates":[77.61213,12.83232]},"properties":{"id":"chittekarepalya-lake","kind":"lake","name":"Chittekarepalya Lake","text":"Sheds built on the south edge, within 30 m of the water, in 2025 and 2026.","fact":null,"front":"elsewhere","hexes":0}},{"type":"Feature","geometry":{"type":"Point","coordinates":[77.72582,12.95784]},"properties":{"id":"thubarahalli-lake","kind":"lake","name":"Thubarahalli Lake","text":"Towers built on the east edge, within 30 m of the water, by 2022.","fact":null,"front":"east","hexes":0}},{"type":"Feature","geometry":{"type":"Point","coordinates":[77.52726,13.09956]},"properties":{"id":"guni-agrahara-lake","kind":"lake","name":"Lake at Guni Agrahara","text":"A layout road laid along the lake's west edge, and the land around it scraped from 2024.","fact":null,"front":"north-west","hexes":0}},{"type":"Feature","geometry":{"type":"Point","coordinates":[77.52578,13.10335]},"properties":{"id":"bylakere-lake","kind":"lake","name":"Bylakere Lake","text":"Layout roads and plots laid around the lake between 2020 and 2023.","fact":null,"front":"north-west","hexes":0}},{"type":"Feature","geometry":{"type":"Point","coordinates":[77.66788,12.80599]},"properties":{"id":"yarandahalli-kere","kind":"lake","name":"Yarandahalli Kere","text":"The tank bed scraped in 2023, and a building on the north-east edge by 2025.","fact":null,"front":"elsewhere","hexes":0}},{"type":"Feature","geometry":{"type":"Point","coordinates":[77.66501,12.99919]},"properties":{"id":"dooravaninagar-lake","kind":"lake","name":"Lake at Dooravaninagar","text":"A road widened on its west side and rail works along its south edge, 2024 to 2026.","fact":null,"front":"east","hexes":0}},{"type":"Feature","geometry":{"type":"Point","coordinates":[77.40003,13.08121]},"properties":{"id":"mallapura-lake","kind":"lake","name":"Lake at Mallapura, Nelamangala","text":"A polyhouse and a building on the south-east edge in 2025 and 2026.","fact":null,"front":"elsewhere","hexes":0}}]}